{"fetched_at":"2026-07-21T07:06:43.627Z","source":"https://celestrak.org/NORAD/elements/gp.php?NAME=CAPELLA&FORMAT=JSON","constellation":"capella","records":[{"OBJECT_NAME":"CAPELLA-11 (ACADIA-1)","OBJECT_ID":"2023-126A","EPOCH":"2026-07-20T20:10:25.927104","CLASSIFICATION_TYPE":"U","MEAN_MOTION":14.85294921,"ECCENTRICITY":0.00017816,"INCLINATION":53.0077,"RA_OF_ASC_NODE":38.7487,"ARG_OF_PERICENTER":137.8489,"MEAN_ANOMALY":222.2627,"EPHEMERIS_TYPE":0,"NORAD_CAT_ID":57693,"ELEMENT_SET_NO":999,"REV_AT_EPOCH":15712,"BSTAR":0.00034381188,"MEAN_MOTION_DOT":0.0000275,"MEAN_MOTION_DDOT":0},{"OBJECT_NAME":"CAPELLA-14 (ACADIA-4)","OBJECT_ID":"2024-066C","EPOCH":"2026-07-20T20:51:20.236608","CLASSIFICATION_TYPE":"U","MEAN_MOTION":15.06847973,"ECCENTRICITY":0.00006843,"INCLINATION":45.6032,"RA_OF_ASC_NODE":78.1559,"ARG_OF_PERICENTER":194.0955,"MEAN_ANOMALY":165.991,"EPHEMERIS_TYPE":0,"NORAD_CAT_ID":59444,"ELEMENT_SET_NO":999,"REV_AT_EPOCH":11757,"BSTAR":0.00048871081,"MEAN_MOTION_DOT":0.0000716,"MEAN_MOTION_DDOT":0},{"OBJECT_NAME":"CAPELLA-13 (ACADIA-3)","OBJECT_ID":"2024-142A","EPOCH":"2026-07-20T10:07:18.222816","CLASSIFICATION_TYPE":"U","MEAN_MOTION":14.87652274,"ECCENTRICITY":0.00013558,"INCLINATION":53.0043,"RA_OF_ASC_NODE":272.4994,"ARG_OF_PERICENTER":90.291,"MEAN_ANOMALY":269.8226,"EPHEMERIS_TYPE":0,"NORAD_CAT_ID":60419,"ELEMENT_SET_NO":999,"REV_AT_EPOCH":10535,"BSTAR":0.00024678426,"MEAN_MOTION_DOT":0.00002031,"MEAN_MOTION_DDOT":0},{"OBJECT_NAME":"CAPELLA-15 (ACADIA-5)","OBJECT_ID":"2024-149CE","EPOCH":"2026-07-20T21:55:22.186272","CLASSIFICATION_TYPE":"U","MEAN_MOTION":14.92386721,"ECCENTRICITY":0.00030602,"INCLINATION":97.6761,"RA_OF_ASC_NODE":273.9715,"ARG_OF_PERICENTER":316.8108,"MEAN_ANOMALY":43.2871,"EPHEMERIS_TYPE":0,"NORAD_CAT_ID":60544,"ELEMENT_SET_NO":999,"REV_AT_EPOCH":10488,"BSTAR":0.00019666885,"MEAN_MOTION_DOT":0.00001958,"MEAN_MOTION_DDOT":0},{"OBJECT_NAME":"CAPELLA-17 (ACADIA-7)","OBJECT_ID":"2025-135BH","EPOCH":"2026-07-20T21:09:23.200992","CLASSIFICATION_TYPE":"U","MEAN_MOTION":14.91660002,"ECCENTRICITY":0.00043777,"INCLINATION":97.7709,"RA_OF_ASC_NODE":315.0086,"ARG_OF_PERICENTER":226.5688,"MEAN_ANOMALY":133.5167,"EPHEMERIS_TYPE":0,"NORAD_CAT_ID":64583,"ELEMENT_SET_NO":999,"REV_AT_EPOCH":5887,"BSTAR":0.00039450424,"MEAN_MOTION_DOT":0.0000391,"MEAN_MOTION_DDOT":0},{"OBJECT_NAME":"CAPELLA-16 (ACADIA-6)","OBJECT_ID":"2025-188D","EPOCH":"2026-07-20T18:43:03.626112","CLASSIFICATION_TYPE":"U","MEAN_MOTION":14.94087832,"ECCENTRICITY":0.00058244,"INCLINATION":97.7373,"RA_OF_ASC_NODE":276.4302,"ARG_OF_PERICENTER":121.6562,"MEAN_ANOMALY":238.5227,"EPHEMERIS_TYPE":0,"NORAD_CAT_ID":65318,"ELEMENT_SET_NO":999,"REV_AT_EPOCH":4893,"BSTAR":0.00029392262,"MEAN_MOTION_DOT":0.00003084,"MEAN_MOTION_DDOT":0},{"OBJECT_NAME":"CAPELLA-19 (ACADIA-9)","OBJECT_ID":"2026-004X","EPOCH":"2026-07-20T22:04:22.579392","CLASSIFICATION_TYPE":"U","MEAN_MOTION":14.86647969,"ECCENTRICITY":0.00015271,"INCLINATION":97.8014,"RA_OF_ASC_NODE":199.6836,"ARG_OF_PERICENTER":94.6642,"MEAN_ANOMALY":265.4749,"EPHEMERIS_TYPE":0,"NORAD_CAT_ID":67384,"ELEMENT_SET_NO":999,"REV_AT_EPOCH":2828,"BSTAR":0.00036848684,"MEAN_MOTION_DOT":0.00003218,"MEAN_MOTION_DDOT":0},{"OBJECT_NAME":"CAPELLA-18 (ACADIA-8)","OBJECT_ID":"2026-004Y","EPOCH":"2026-07-20T22:18:50.084640","CLASSIFICATION_TYPE":"U","MEAN_MOTION":14.86637103,"ECCENTRICITY":0.00014846,"INCLINATION":97.8017,"RA_OF_ASC_NODE":199.8474,"ARG_OF_PERICENTER":90.8032,"MEAN_ANOMALY":269.3354,"EPHEMERIS_TYPE":0,"NORAD_CAT_ID":67385,"ELEMENT_SET_NO":999,"REV_AT_EPOCH":2829,"BSTAR":0.00026150102,"MEAN_MOTION_DOT":0.00002268,"MEAN_MOTION_DDOT":0},{"OBJECT_NAME":"CAPELLA-20 (ACADIA-10)","OBJECT_ID":"2026-067BX","EPOCH":"2026-07-20T21:36:49.509792","CLASSIFICATION_TYPE":"U","MEAN_MOTION":14.914767,"ECCENTRICITY":0.0000958,"INCLINATION":97.7562,"RA_OF_ASC_NODE":159.6594,"ARG_OF_PERICENTER":119.0875,"MEAN_ANOMALY":241.044,"EPHEMERIS_TYPE":0,"NORAD_CAT_ID":68485,"ELEMENT_SET_NO":999,"REV_AT_EPOCH":1675,"BSTAR":0.00040400684,"MEAN_MOTION_DOT":0.00003987,"MEAN_MOTION_DDOT":0}]}
