CAPELLA-11 (ACADIA-1)   
1 57693U 23126A   26201.84057786  .00002750  00000+0  34381-3 0  9995
2 57693  53.0077  38.7487 0001781 137.8489 222.2627 14.85294921157122
CAPELLA-14 (ACADIA-4)   
1 59444U 24066C   26201.86898422  .00007160  00000+0  48871-3 0  9996
2 59444  45.6032  78.1559 0000684 194.0955 165.9910 15.06847973117576
CAPELLA-13 (ACADIA-3)   
1 60419U 24142A   26201.42173869  .00002031  00000+0  24678-3 0  9999
2 60419  53.0043 272.4994 0001355  90.2910 269.8226 14.87652274105354
CAPELLA-15 (ACADIA-5)   
1 60544U 24149CE  26201.91345123  .00001958  00000+0  19667-3 0  9992
2 60544  97.6761 273.9715 0003060 316.8108  43.2871 14.92386721104886
CAPELLA-17 (ACADIA-7)   
1 64583U 25135BH  26201.88151853  .00003910  00000+0  39450-3 0  9998
2 64583  97.7709 315.0086 0004377 226.5688 133.5167 14.91660002 58871
CAPELLA-16 (ACADIA-6)   
1 65318U 25188D   26201.77990308  .00003084  00000+0  29392-3 0  9993
2 65318  97.7373 276.4302 0005824 121.6562 238.5227 14.94087832 48936
CAPELLA-19 (ACADIA-9)   
1 67384U 26004X   26201.91970578  .00003218  00000+0  36849-3 0  9993
2 67384  97.8014 199.6836 0001527  94.6642 265.4749 14.86647969 28284
CAPELLA-18 (ACADIA-8)   
1 67385U 26004Y   26201.92974635  .00002268  00000+0  26150-3 0  9991
2 67385  97.8017 199.8474 0001484  90.8032 269.3354 14.86637103 28296
CAPELLA-20 (ACADIA-10)  
1 68485U 26067BX  26201.90057303  .00003987  00000+0  40401-3 0  9998
2 68485  97.7562 159.6594 0000958 119.0875 241.0440 14.91476700 16754
